ONEWEB-0252             
1 48970U 21060D   26193.08676713  .00000070  00000+0  15055-3 0  9991
2 48970  87.9080 223.8245 0001814  96.3356 263.7982 13.16595228242933
ONEWEB-0253             
1 48971U 21060E   26193.07568601  .00000155  00000+0  37095-3 0  9999
2 48971  87.9079 223.8321 0002169  95.3675 264.7703 13.16594795242866
ONEWEB-0254             
1 48972U 21060F   26193.08518889  .00000073  00000+0  15704-3 0  9996
2 48972  87.9084 223.8281 0002248  98.0152 262.1234 13.16594176242860
ONEWEB-0255             
1 48973U 21060G   26193.04718909 -.00000019  00000+0 -82098-4 0  9991
2 48973  87.9080 223.8419 0002141  99.1547 260.9826 13.16593769242930
ONEWEB-0256             
1 48974U 21060H   26193.07329325  .00000079  00000+0  17257-3 0  9993
2 48974  87.9073 223.8402 0001844  92.2541 267.8801 13.16592197242902
ONEWEB-0257             
1 48975U 21060J   26192.57379029 -.00000117  00000+0 -33969-3 0  9997
2 48975  87.9079 223.9280 0002070  97.2060 262.9307 13.16593327242797
ONEWEB-0258             
1 48976U 21060K   26193.03135601  .00000021  00000+0  20687-4 0  9992
2 48976  87.9079 223.8489 0002113  93.8911 266.2461 13.16594034242865
ONEWEB-0259             
1 48977U 21060L   26192.64503710 -.00000009  00000+0 -57453-4 0  9998
2 48977  87.9079 223.9240 0002197  96.3564 263.7818 13.16594550242845
ONEWEB-0260             
1 48978U 21060M   26193.01629950  .00000079  00000+0  17379-3 0  9993
2 48978  87.9073 223.8509 0001667  91.1641 268.9681 13.16595663242871
ONEWEB-0261             
1 48979U 21060N   26193.06223410  .00000091  00000+0  20531-3 0  9998
2 48979  87.9072 223.8431 0002019 104.4834 255.6521 13.16593403242932
ONEWEB-0262             
1 48980U 21060P   26192.58645541  .00000056  00000+0  11234-3 0  9990
2 48980  87.9075 223.9235 0002240  97.3343 262.8043 13.16594179242830
ONEWEB-0263             
1 48981U 21060Q   26193.07410205  .00000110  00000+0  25312-3 0  9996
2 48981  87.9081 223.8383 0002126 104.4764 255.6603 13.16593681242863
ONEWEB-0264             
1 48982U 21060R   26192.57931286 -.00000023  00000+0 -93713-4 0  9994
2 48982  87.9070 223.9395 0001924  99.0645 261.0704 13.16592262242809
ONEWEB-0266             
1 48984U 21060T   26193.05668016  .00000033  00000+0  53605-4 0  9993
2 48984  87.9078 223.8352 0002164  91.0991 269.0388 13.16595162242857
ONEWEB-0267             
1 48985U 21060U   26193.06777128  .00000139  00000+0  33011-3 0  9995
2 48985  87.9081 223.8301 0001980 100.4995 259.6359 13.16593604242863
ONEWEB-0268             
1 48986U 21060V   26193.03610400  .00000027  00000+0  38181-4 0  9992
2 48986  87.9081 223.8457 0002006  91.1560 268.9801 13.16593941243129
ONEWEB-0269             
1 48987U 21060W   26192.56112334  .00000028  00000+0  40791-4 0  9994
2 48987  87.9078 223.9406 0002011  88.6979 271.4383 13.16594025242837
ONEWEB-0270             
1 48988U 21060X   26193.03452334 -.00000034  00000+0 -12207-3 0  9994
2 48988  87.9085 223.8478 0002325 102.7095 257.4296 13.16594044242938
ONEWEB-0271             
1 48989U 21060Y   26193.02185757  .00000013  00000+0  10973-5 0  9991
2 48989  87.9076 223.8400 0002061  97.6611 262.4754 13.16594190242934
ONEWEB-0272             
1 48990U 21060Z   26193.04402012 -.00000003  00000+0 -42248-4 0  9991
2 48990  87.9072 223.8467 0001780  95.9773 264.1561 13.16595641242883
ONEWEB-0273             
1 48991U 21060AA  26193.06618427  .00000077  00000+0  16904-3 0  9991
2 48991  87.9081 223.8420 0002122 100.6441 259.4929 13.16593716242864
ONEWEB-0274             
1 48992U 21060AB  26192.63552743 -.00000026  00000+0 -10068-3 0  9993
2 48992  87.9070 223.9278 0001702  93.7646 266.3680 13.16595642242846
ONEWEB-0275             
1 48993U 21060AC  26192.62444700  .00000045  00000+0  84830-4 0  9994
2 48993  87.9083 223.9221 0002006  96.0849 264.0511 13.16595426242778
ONEWEB-0276             
1 48994U 21060AD  26193.03768939 -.00000005  00000+0 -46736-4 0  9995
2 48994  87.9082 223.8391 0001959  93.9935 266.1420 13.16594178242846
ONEWEB-0277             
1 48995U 21060AE  26193.05036162 -.00000016  00000+0 -74599-4 0  9994
2 48995  87.9067 223.8452 0002103 101.5038 258.6330 13.16594942242834
ONEWEB-0278             
1 48996U 21060AF  26192.58487536 -.00000001  00000+0 -36309-4 0  9998
2 48996  87.9078 223.9287 0002309  91.2173 268.9223 13.16593572242908
ONEWEB-0279             
1 48997U 21060AG  26193.04877289  .00000006  00000+0 -19056-4 0  9993
2 48997  87.9076 223.8342 0001953 101.1466 258.9884 13.16593667242893
ONEWEB-0280             
1 48998U 21060AH  26193.06380934  .00000109  00000+0  25266-3 0  9994
2 48998  87.9076 223.8361 0002423  98.8732 261.2673 13.16595052242833
ONEWEB-0281             
1 48999U 21060AJ  26193.06935334 -.00000017  00000+0 -78341-4 0  9998
2 48999  87.9079 223.8299 0002003  91.9456 268.1904 13.16592977242902
ONEWEB-0282             
1 49000U 21060AK  26193.02343808 -.00000005  00000+0 -45809-4 0  9997
2 49000  87.9062 223.8476 0002095  91.8964 268.2407 13.16594908242870
