OBJECT_NAME,OBJECT_ID,EPOCH,MEAN_MOTION,ECCENTRICITY,INCLINATION,RA_OF_ASC_NODE,ARG_OF_PERICENTER,MEAN_ANOMALY,EPHEMERIS_TYPE,CLASSIFICATION_TYPE,NORAD_CAT_ID,ELEMENT_SET_NO,REV_AT_EPOCH,BSTAR,MEAN_MOTION_DOT,MEAN_MOTION_DDOT
ONEWEB-0252,2021-060D,2026-07-12T02:04:56.680032,13.16595228,.0001814,87.9080,223.8245,96.3356,263.7982,0,U,48970,999,24293,.15055E-3,.7E-6,0
ONEWEB-0253,2021-060E,2026-07-12T01:48:59.271264,13.16594795,.0002169,87.9079,223.8321,95.3675,264.7703,0,U,48971,999,24286,.37095E-3,.155E-5,0
ONEWEB-0254,2021-060F,2026-07-12T02:02:40.320096,13.16594176,.0002248,87.9084,223.8281,98.0152,262.1234,0,U,48972,999,24286,.15704E-3,.73E-6,0
ONEWEB-0255,2021-060G,2026-07-12T01:07:57.137376,13.16593769,.0002141,87.9080,223.8419,99.1547,260.9826,0,U,48973,999,24293,-.82098E-4,-.19E-6,0
ONEWEB-0256,2021-060H,2026-07-12T01:45:32.536800,13.16592197,.0001844,87.9073,223.8402,92.2541,267.8801,0,U,48974,999,24290,.17257E-3,.79E-6,0
ONEWEB-0257,2021-060J,2026-07-11T13:46:15.481056,13.16593327,.000207,87.9079,223.9280,97.2060,262.9307,0,U,48975,999,24279,-.33969335E-3,-.117E-5,0
ONEWEB-0258,2021-060K,2026-07-12T00:45:09.159264,13.16594034,.0002113,87.9079,223.8489,93.8911,266.2461,0,U,48976,999,24286,.20687E-4,.21E-6,0
ONEWEB-0259,2021-060L,2026-07-11T15:28:51.205440,13.16594550,.00021975,87.9079,223.9240,96.3564,263.7818,0,U,48977,999,24284,-.57453192E-4,-.9E-7,0
ONEWEB-0260,2021-060M,2026-07-12T00:23:28.276800,13.16595663,.0001667,87.9073,223.8509,91.1641,268.9681,0,U,48978,999,24287,.17379E-3,.79E-6,0
ONEWEB-0261,2021-060N,2026-07-12T01:29:37.026240,13.16593403,.0002019,87.9072,223.8431,104.4834,255.6521,0,U,48979,999,24293,.20531E-3,.91E-6,0
ONEWEB-0262,2021-060P,2026-07-11T14:04:29.747424,13.16594179,.00022404,87.9075,223.9235,97.3343,262.8043,0,U,48980,999,24283,.11233593E-3,.56E-6,0
ONEWEB-0263,2021-060Q,2026-07-12T01:46:42.417120,13.16593681,.0002126,87.9081,223.8383,104.4764,255.6603,0,U,48981,999,24286,.25312E-3,.11E-5,0
ONEWEB-0264,2021-060R,2026-07-11T13:54:12.631104,13.16592262,.00019248,87.9070,223.9395,99.0645,261.0704,0,U,48982,999,24280,-.93713498E-4,-.23E-6,0
ONEWEB-0266,2021-060T,2026-07-12T01:21:37.165824,13.16595162,.0002164,87.9078,223.8352,91.0991,269.0388,0,U,48984,999,24285,.53605E-4,.33E-6,0
ONEWEB-0267,2021-060U,2026-07-12T01:37:35.438592,13.16593604,.000198,87.9081,223.8301,100.4995,259.6359,0,U,48985,999,24286,.33011E-3,.139E-5,0
ONEWEB-0268,2021-060V,2026-07-12T00:51:59.385600,13.16593941,.0002006,87.9081,223.8457,91.1560,268.9801,0,U,48986,999,24312,.38181E-4,.27E-6,0
ONEWEB-0269,2021-060W,2026-07-11T13:28:01.056576,13.16594025,.00020114,87.9078,223.9406,88.6979,271.4383,0,U,48987,999,24283,.40790713E-4,.28E-6,0
ONEWEB-0270,2021-060X,2026-07-12T00:49:42.816576,13.16594044,.0002325,87.9085,223.8478,102.7095,257.4296,0,U,48988,999,24293,-.12207E-3,-.34E-6,0
ONEWEB-0271,2021-060Y,2026-07-12T00:31:28.494048,13.16594190,.0002061,87.9076,223.8400,97.6611,262.4754,0,U,48989,999,24293,.10973E-5,.13E-6,0
ONEWEB-0272,2021-060Z,2026-07-12T01:03:23.338368,13.16595641,.000178,87.9072,223.8467,95.9773,264.1561,0,U,48990,999,24288,-.42248E-4,-.3E-7,0
ONEWEB-0273,2021-060AA,2026-07-12T01:35:18.320928,13.16593716,.0002122,87.9081,223.8420,100.6441,259.4929,0,U,48991,999,24286,.16904E-3,.77E-6,0
ONEWEB-0274,2021-060AB,2026-07-11T15:15:09.569952,13.16595642,.00017024,87.9070,223.9278,93.7646,266.3680,0,U,48992,999,24284,-.10067889E-3,-.26E-6,0
ONEWEB-0275,2021-060AC,2026-07-11T14:59:12.220800,13.16595426,.00020068,87.9083,223.9221,96.0849,264.0511,0,U,48993,999,24277,.84829633E-4,.45E-6,0
ONEWEB-0276,2021-060AD,2026-07-12T00:54:16.363296,13.16594178,.0001959,87.9082,223.8391,93.9935,266.1420,0,U,48994,999,24284,-.46736E-4,-.5E-7,0
ONEWEB-0277,2021-060AE,2026-07-12T01:12:31.243968,13.16594942,.0002103,87.9067,223.8452,101.5038,258.6330,0,U,48995,999,24283,-.74599E-4,-.16E-6,0
ONEWEB-0278,2021-060AF,2026-07-11T14:02:13.231104,13.16593572,.00023094,87.9078,223.9287,91.2173,268.9223,0,U,48996,999,24290,-.36308934E-4,-.1E-7,0
ONEWEB-0279,2021-060AG,2026-07-12T01:10:13.977696,13.16593667,.0001953,87.9076,223.8342,101.1466,258.9884,0,U,48997,999,24289,-.19056E-4,.6E-7,0
ONEWEB-0280,2021-060AH,2026-07-12T01:31:53.126976,13.16595052,.0002423,87.9076,223.8361,98.8732,261.2673,0,U,48998,999,24283,.25266E-3,.109E-5,0
ONEWEB-0281,2021-060AJ,2026-07-12T01:39:52.128576,13.16592977,.0002003,87.9079,223.8299,91.9456,268.1904,0,U,48999,999,24290,-.78341E-4,-.17E-6,0
ONEWEB-0282,2021-060AK,2026-07-12T00:33:45.050112,13.16594908,.0002095,87.9062,223.8476,91.8964,268.2407,0,U,49000,999,24287,-.45809E-4,-.5E-7,0
